IRIDIUM 36              
1 24967U 97056C   24247.60512479  .00001374  00000+0  45714-3 0  9996
2 24967  86.3938 293.3705 0002124  96.4401 263.7038 14.37001338411059
IRIDIUM 39              
1 25042U 97069D   24247.78246058  .00003056  00000+0  81169-3 0  9994
2 25042  86.3967 333.9203 0018436 176.0826 184.0526 14.48274448407495
IRIDIUM 38              
1 25043U 97069E   24247.79674629  .00001983  00000+0  65663-3 0  9993
2 25043  86.4021 353.6372 0001532  34.1911 325.9385 14.37478499404803
IRIDIUM 42              
1 25077U 97077A   24247.80375468  .00001890  00000+0  64736-3 0  9997
2 25077  86.4024 359.4454 0001887  74.6571 285.4834 14.35758705400097
IRIDIUM 44              
1 25078U 97077B   24247.76287599  .00001751  00000+0  55449-3 0  9997
2 25078  86.4013 342.1671 0000887 151.6769 208.4478 14.39605556402483
IRIDIUM 45              
1 25104U 97082A   24247.88382231  .00039829  00000+0  20528-2 0  9991
2 25104  86.3737 185.2292 0147450 313.6432  45.2650 15.07164641408694
IRIDIUM 24              
1 25105U 97082B   24247.89247401  .00002230  00000+0  68199-3 0  9995
2 25105  86.3954 201.5615 0009655 312.7731  47.2656 14.41410297401962
IRIDIUM 51              
1 25262U 98018A   24247.93206592  .00037022  00000+0  15470-2 0  9990
2 25262  86.3989 194.7591 0130248 250.8041 107.9067 15.15955102403322
